NORAD_CAT_ID,OBJECT_NAME,OBJECT_TYPE,EPOCH,MEAN_MOTION,ECCENTRICITY,INCLINATION,RA_OF_ASC_NODE,ARG_OF_PERICENTER,MEAN_ANOMALY,BSTAR,MEAN_MOTION_DOT,MEAN_MOTION_DDOT,TLE_LINE0,TLE_LINE1,TLE_LINE2,SEMIMAJOR_AXIS,PERIOD,APOGEE,PERIGEE,DECAYED
53635.0,STARLINK-4587,PAYLOAD,2022-10-01 22:00:00,15.73172132,0.0001188,53.2158,115.7999,113.3058,214.814,-6.1285e-05,-9.201e-05,0.0,0 STARLINK-4587,1 53635U 22104AZ  22274.91667824 -.00009201  00000-0 -61285-4 0  9991,2 53635  53.2158 115.7999 0001188 113.3058 214.8140 15.73172132  5500,6727.975,91.535,350.639,349.04,0.0
53635.0,STARLINK-4587,PAYLOAD,2022-10-02 14:00:01,15.7316273,0.0001314,53.2165,112.4991,119.0832,26.8106,0.00052956,0.0007423999999999,0.0,0 STARLINK-4587,1 53635U 22104AZ  22275.58334491  .00074240  00000-0  52956-3 0  9993,2 53635  53.2165 112.4991 0001314 119.0832  26.8106 15.73162730  1308,6728.001,91.535,350.75,348.982,0.0
53635.0,STARLINK-4587,PAYLOAD,2022-10-02 22:00:00,15.73201432,0.0001177,53.2165,110.8517,104.0926,130.7233,0.00063244,0.0008908999999999,0.0,0 STARLINK-4587,1 53635U 22104AZ  22275.91667824  .00089090  00000-0  63244-3 0  9990,2 53635  53.2165 110.8517 0001177 104.0926 130.7233 15.73201432  5661,6727.891,91.533,350.548,348.964,0.0
53635.0,STARLINK-4587,PAYLOAD,2022-10-03 14:00:01,15.73231786,0.0001225,53.2163,107.5508,115.7957,296.9933,8.1735e-06,5.29e-06,0.0,0 STARLINK-4587,1 53635U 22104AZ  22276.58334491  .00000529  00000-0  81735-5 0  9992,2 53635  53.2163 107.5508 0001225 115.7957 296.9933 15.73231786  1303,6727.805,91.531,350.494,348.845,0.0
53635.0,STARLINK-4587,PAYLOAD,2022-10-03 22:00:00,15.73210998,0.0001022,53.2163,105.9032,102.5178,39.2527,-9.1023e-05,-0.00013379,0.0,0 STARLINK-4587,1 53635U 22104AZ  22276.91667824 -.00013379  00000-0 -91023-4 0  9997,2 53635  53.2163 105.9032 0001022 102.5178  39.2527 15.73210998  1300,6727.864000000001,91.533,350.416,349.041,0.0
53635.0,STARLINK-4587,PAYLOAD,2022-10-04 14:00:01,15.73204343,0.0001279,53.2167,102.6022,106.7339,212.9223,-0.00030956,-0.00043846,0.0,0 STARLINK-4587,1 53635U 22104AZ  22277.58334491 -.00043846  00000-0 -30956-3 0  9991,2 53635  53.2167 102.6022 0001279 106.7339 212.9223 15.73204343  5928,6727.8830000000025,91.533,350.608,348.88699999999994,0.0
53635.0,STARLINK-4587,PAYLOAD,2022-10-04 22:00:00,15.7313144,0.0001200999999999,53.2165,100.9546,93.9752,314.6085,0.00055044,0.00077114,0.0,0 STARLINK-4587,1 53635U 22104AZ  22277.91667824  .00077114  00000-0  55044-3 0  9995,2 53635  53.2165 100.9546 0001201  93.9752 314.6085 15.73131440  1300,6728.090999999999,91.537,350.764,349.148,0.0
53635.0,STARLINK-4587,PAYLOAD,2022-10-05 06:00:00,15.73206284,0.0001094999999999,53.2163,99.3034,100.0323,37.4276,-0.00047194,-0.00066349,0.0,0 STARLINK-4587,1 53635U 22104AZ  22278.25001157 -.00066349  00000-0 -47194-3 0  9991,2 53635  53.2163  99.3034 0001095 100.0323  37.4276 15.73206284  6032,6727.877,91.533,350.47900000000016,349.006,0.0
53635.0,STARLINK-4587,PAYLOAD,2022-10-05 14:00:01,15.73142288,0.00011,53.2162,97.6541,102.9338,123.4897,0.00031845,0.00044197,0.0,0 STARLINK-4587,1 53635U 22104AZ  22278.58335648  .00044197  00000-0  31845-3 0  9993,2 53635  53.2162  97.6541 0001100 102.9338 123.4897 15.73142288  1302,6728.06,91.537,350.665,349.185,0.0
53635.0,STARLINK-4587,PAYLOAD,2022-10-05 22:00:00,15.73161399,0.0001006,53.216,96.0066,85.0526,230.1804,0.00059475,0.00083544,0.0,0 STARLINK-4587,1 53635U 22104AZ  22278.91667824  .00083544  00000-0  59475-3 0  9992,2 53635  53.2160  96.0066 0001006  85.0526 230.1804 15.73161399  6134,6728.005,91.535,350.547,349.1930000000001,0.0
53635.0,STARLINK-4587,PAYLOAD,2022-10-06 14:00:01,15.73215257,0.0001298,53.2163,92.7054,92.1081,40.9941,-2.9424e-05,-4.75e-05,0.0,0 STARLINK-4587,1 53635U 22104AZ  22279.58334491 -.00004750  00000-0 -29424-4 0  9993,2 53635  53.2163  92.7054 0001298  92.1081  40.9941 15.73215257  1301,6727.852,91.532,350.59,348.843,0.0
53635.0,STARLINK-4587,PAYLOAD,2022-10-06 22:42:55,15.73159173,0.0001199,53.2162,90.9106,75.9373,314.9442,0.0007224999999999,0.00101836,0.0,0 STARLINK-4587,1 53635U 22104AZ  22279.94646991  .00101836  00000-0  72250-3 0  9999,2 53635  53.2162  90.9106 0001199  75.9373 314.9442 15.73159173  1305,6728.012,91.536,350.68300000000005,349.07,0.0
53635.0,STARLINK-4587,PAYLOAD,2022-10-07 00:00:00,15.73186336,0.0001137999999999,53.2161,90.6455,72.9286,261.3519,0.00040841,0.00057054,0.0,0 STARLINK-4587,1 53635U 22104AZ  22280.00001157  .00057054  00000-0  40841-3 0  9990,2 53635  53.2161  90.6455 0001138  72.9286 261.3519 15.73186336  6307,6727.934,91.534,350.565,349.033,0.0
53635.0,STARLINK-4587,PAYLOAD,2022-10-07 06:00:00,15.73256384,0.000106,53.216,89.4059,83.5178,227.5063,-0.00029262,-0.00041582,0.0,0 STARLINK-4587,1 53635U 22104AZ  22280.25001157 -.00041582  00000-0 -29262-3 0  9992,2 53635  53.2160  89.4059 0001060  83.5178 227.5063 15.73256384  6347,6727.734,91.53,350.31300000000016,348.886,0.0
53635.0,STARLINK-4587,PAYLOAD,2022-10-07 14:00:01,15.73232309,0.0001068,53.2159,87.7567,82.1425,317.8397,-0.00032721,-0.00046351,0.0,0 STARLINK-4587,1 53635U 22104AZ  22280.58334491 -.00046351  00000-0 -32721-3 0  9991,2 53635  53.2159  87.7567 0001068  82.1425 317.8397 15.73232309  1303,6727.803000000001,91.531,350.38699999999994,348.95,0.0
53635.0,STARLINK-4587,PAYLOAD,2022-10-07 22:00:00,15.73163905,0.000104,53.2156,86.1086,65.4048,63.5311,0.00018616,0.00025546,0.0,0 STARLINK-4587,1 53635U 22104AZ  22280.91667824  .00025546  00000-0  18616-3 0  9995,2 53635  53.2156  86.1086 0001040  65.4048  63.5311 15.73163905  1300,6727.998000000001,91.535,350.56300000000016,349.163,0.0
53635.0,STARLINK-4587,PAYLOAD,2022-10-08 14:00:01,15.7317854,0.0001154,53.2161,82.8078,70.875,235.8405,0.00023182,0.00032008,0.0,0 STARLINK-4587,1 53635U 22104AZ  22281.58334491  .00032008  00000-0  23182-3 0  9995,2 53635  53.2161  82.8078 0001154  70.8750 235.8405 15.73178540  6557,6727.956,91.534,350.598,349.045,0.0
53635.0,STARLINK-4587,PAYLOAD,2022-10-08 22:00:00,15.73193176,0.0001215,53.2159,81.1596,53.819,341.8296,0.00025156,0.00034821,0.0,0 STARLINK-4587,1 53635U 22104AZ  22281.91667824  .00034821  00000-0  25156-3 0  9999,2 53635  53.2159  81.1596 0001215  53.8190 341.8296 15.73193176  1304,6727.915,91.534,350.597,348.962,0.0
53635.0,STARLINK-4587,PAYLOAD,2022-10-09 06:00:00,15.73160973,0.0001159,53.2172,79.5093,55.7201,68.8724,0.00020929,0.00028804,0.0,0 STARLINK-4587,1 53635U 22104AZ  22282.25001157  .00028804  00000-0  20929-3 0  9995,2 53635  53.2172  79.5093 0001159  55.7201  68.8724 15.73160973  6668,6728.005999999999,91.535,350.651,349.092,0.0
53635.0,STARLINK-4587,PAYLOAD,2022-10-09 14:00:01,15.73245499,0.0001314,53.216,77.8594,58.8367,154.6647,-0.00010834,-0.00015826,0.0,0 STARLINK-4587,1 53635U 22104AZ  22282.58334491 -.00015826  00000-0 -10834-3 0  9997,2 53635  53.2160  77.8594 0001314  58.8367 154.6647 15.73245499  6713,6727.765,91.531,350.514,348.746,0.0
53635.0,STARLINK-4587,PAYLOAD,2022-10-09 22:00:00,15.73227824,0.0001357,53.2157,76.211,46.3055,256.1724,0.00031991,0.00044569,0.0,0 STARLINK-4587,1 53635U 22104AZ  22282.91667824  .00044569  00000-0  31991-3 0  9994,2 53635  53.2157  76.2110 0001357  46.3055 256.1724 15.73227824  1305,6727.816,91.532,350.594,348.76800000000014,0.0
53635.0,STARLINK-4587,PAYLOAD,2022-10-10 06:00:00,15.73254667,0.000104,53.2161,74.5593,46.57,344.8915,0.00011633,0.00015775,0.0,0 STARLINK-4587,1 53635U 22104AZ  22283.25001157  .00015775  00000-0  11633-3 0  9991,2 53635  53.2161  74.5593 0001040  46.5700 344.8915 15.73254667  6817,6727.739000000001,91.53,350.30400000000014,348.905,0.0
53635.0,STARLINK-4587,PAYLOAD,2022-10-10 14:00:01,15.73331068,0.0001284,53.2168,72.9104,47.173,73.2942,-0.0012842,-0.00178082,0.0,0 STARLINK-4587,1 53635U 22104AZ  22283.58334491 -.00178082  00000-0 -12842-2 0  9992,2 53635  53.2168  72.9104 0001284  47.1730  73.2942 15.73331068  1307,6727.522,91.526,350.25,348.523,0.0
53635.0,STARLINK-4587,PAYLOAD,2022-10-10 22:00:01,15.72953946,0.0001456,53.2166,71.2627,41.7157,167.8929,0.00060631,0.00084434,0.0,0 STARLINK-4587,1 53635U 22104AZ  22283.91668981  .00084434  00000-0  60631-3 0  9998,2 53635  53.2166  71.2627 0001456  41.7157 167.8929 15.72953946  1300,6728.597,91.547,351.441,349.482,0.0
53635.0,STARLINK-4587,PAYLOAD,2022-10-11 06:00:00,15.73128954,0.0001405,53.2167,69.6105,45.7516,252.5772,-0.00012267,-0.00017747,0.0,0 STARLINK-4587,1 53635U 22104AZ  22284.25001157 -.00017747  00000-0 -12267-3 0  9999,2 53635  53.2167  69.6105 0001405  45.7516 252.5772 15.73128954  6970,6728.098000000001,91.537,350.908,349.017,0.0
53635.0,STARLINK-4587,PAYLOAD,2022-10-11 14:00:01,15.73209388,0.0001631,53.2174,67.9632,59.9411,327.1423,-5.0707e-05,-7.733e-05,0.0,0 STARLINK-4587,1 53635U 22104AZ  22284.58334491 -.00007733  00000-0 -50707-4 0  9991,2 53635  53.2174  67.9632 0001631  59.9411 327.1423 15.73209388  1301,6727.868,91.533,350.831,348.636,0.0
53635.0,STARLINK-4587,PAYLOAD,2022-10-11 22:00:00,15.73143546,0.0001629999999999,53.2161,66.314,32.9495,83.0527,0.00079822,0.00112646,0.0,0 STARLINK-4587,1 53635U 22104AZ  22284.91667824  .00112646  00000-0  79822-3 0  9993,2 53635  53.2161  66.3140 0001630  32.9495  83.0527 15.73143546  1302,6728.056,91.536,351.01800000000014,348.824,0.0
53635.0,STARLINK-4587,PAYLOAD,2022-10-12 14:00:01,15.73316115,0.0001526,53.2172,63.0142,39.089,254.7928,-0.0016430999999999,-0.00226257,0.0,0 STARLINK-4587,1 53635U 22104AZ  22285.58334491 -.00226257  00000-0 -16431-2 0  9990,2 53635  53.2172  63.0142 0001526  39.0890 254.7928 15.73316115  7189,6727.564,91.526,350.456,348.403,0.0
53635.0,STARLINK-4587,PAYLOAD,2022-10-12 22:00:00,15.73152924,0.0001691,53.2169,61.3658,45.411,337.4371,0.00059106,0.00082988,0.0,0 STARLINK-4587,1 53635U 22104AZ  22285.91667824  .00082988  00000-0  59106-3 0  9992,2 53635  53.2169  61.3658 0001691  45.4110 337.4371 15.73152924  1302,6728.029,91.536,351.032,348.75699999999995,0.0
